OBJECT_NAME,OBJECT_ID,EPOCH,MEAN_MOTION,ECCENTRICITY,INCLINATION,RA_OF_ASC_NODE,ARG_OF_PERICENTER,MEAN_ANOMALY,EPHEMERIS_TYPE,CLASSIFICATION_TYPE,NORAD_CAT_ID,ELEMENT_SET_NO,REV_AT_EPOCH,BSTAR,MEAN_MOTION_DOT,MEAN_MOTION_DDOT
GSAT0225 (GALILEO 29),2024-079A,2026-07-19T09:03:08.287200,1.70473943,.00004351,55.1387,100.1800,337.1149,204.2884,0,U,59598,999,1386,0,-.37E-6,0
GSAT0227 (GALILEO 30),2024-079C,2026-07-18T02:12:23.834592,1.70473877,.00029504,55.1327,100.2145,69.2435,290.8270,0,U,59600,999,1389,0,-.31E-6,0
GSAT0232 (GALILEO 32),2024-167A,2026-07-19T11:58:30.004896,1.70474073,.00065203,55.1783,220.4265,235.5484,123.6630,0,U,61182,999,1142,0,.53E-6,0
GSAT0226 (GALILEO 31),2024-167B,2026-07-19T08:45:44.450784,1.70474126,.0003204,55.1770,220.4373,238.7510,129.6432,0,U,61183,999,1140,0,.53E-6,0
BEIDOU-3 M25 (C47),2024-168B,2026-07-19T14:40:30.313344,1.86230164,.00034221,54.4420,301.1145,291.6920,25.0720,0,U,61186,999,1238,0,-.97E-6,0
BEIDOU-3 M27 (C49),2024-168C,2026-07-19T05:34:14.882880,1.86230183,.00008461,54.4378,301.1104,41.9331,155.5347,0,U,61187,999,985,0,-.95E-6,0
GPS BIII-7  (PRN 01),2024-242A,2026-07-19T06:06:16.835328,2.00572308,.0017984,54.8340,332.8810,4.3380,359.7327,0,U,62339,999,1190,0,-.107E-5,0
QZS-6 (QZSS/PRN 200),2025-023A,2026-07-19T14:23:14.132832,1.00274502,.000192,0.0123,40.1211,74.8779,128.6618,0,U,62876,999,527,0,-.237E-5,0
COSMOS 2584 (704K),2025-042A,2026-07-19T01:11:42.267264,2.13103871,.00055541,65.1027,71.7190,213.0172,147.0181,0,U,63130,999,1072,0,-.41E-6,0
GPS BIII-8  (PRN 21),2025-116A,2026-07-19T06:46:41.170080,2.00573641,.00084894,55.2566,29.8392,339.4064,228.0722,0,U,64202,999,851,0,-.9E-6,0
COSMOS 2596 (708K),2025-206B,2026-07-19T10:20:35.382912,2.13100906,.00112184,64.6134,313.8624,307.1523,101.2891,0,U,65590,999,660,0,-.8E-6,0
GSAT0233 (GALILEO 33),2025-302A,2026-07-18T07:30:10.718784,1.70473961,.00010389,54.3525,101.2437,152.4729,26.5070,0,U,67160,999,365,0,-.32E-6,0
GSAT0234 (GALILEO 34),2025-302C,2026-07-16T20:22:49.584000,1.70473930,.00022161,54.3544,101.2845,322.1435,218.7937,0,U,67162,999,368,0,-.28E-6,0
GPS BIII-9  (PRN 20),2026-017A,2026-07-19T02:31:37.357536,2.00570466,.00215208,55.1087,87.4739,260.4546,99.3560,0,U,67588,999,43225,0,-.44E-6,0
GPS BIII-10 (PRN 13),2026-087A,2026-07-19T07:53:50.655264,2.00573051,.00205167,54.9613,206.5163,106.0701,261.0566,0,U,68791,999,148,0,.58E-6,0
