GSAT0225 (GALILEO 29)   
1 59598U 24079A   26200.37717925 -.00000037  00000+0  00000+0 0  9998
2 59598  55.1387 100.1800 0000435 337.1149 204.2884  1.70473943 13861
GSAT0227 (GALILEO 30)   
1 59600U 24079C   26199.09194253 -.00000031  00000+0  00000+0 0  9995
2 59600  55.1327 100.2145 0002950  69.2435 290.8270  1.70473877 13896
GSAT0232 (GALILEO 32)   
1 61182U 24167A   26200.49895839  .00000053  00000+0  00000+0 0  9999
2 61182  55.1783 220.4265 0006520 235.5484 123.6630  1.70474073 11426
GSAT0226 (GALILEO 31)   
1 61183U 24167B   26200.36509781  .00000053  00000+0  00000+0 0  9994
2 61183  55.1770 220.4373 0003204 238.7510 129.6432  1.70474126 11407
BEIDOU-3 M25            
1 61186U 24168B   26200.61146196 -.00000097  00000+0  00000+0 0  9992
2 61186  54.4420 301.1145 0003422 291.6920  25.0720  1.86230164 12389
BEIDOU-3 M27            
1 61187U 24168C   26200.23211670 -.00000095  00000+0  00000+0 0  9999
2 61187  54.4378 301.1104 0000846  41.9331 155.5347  1.86230183  9859
NAVSTAR 83 (USA 440)    
1 62339U 24242A   26200.25436152 -.00000107  00000+0  00000+0 0  9992
2 62339  54.8340 332.8810 0017984   4.3380 359.7327  2.00572308 11905
QZS-6 (MICHIBIKI-6)     
1 62876U 25023A   26200.59946913 -.00000237  00000+0  00000+0 0  9998
2 62876   0.0123  40.1211 0001920  74.8779 128.6618  1.00274502  5277
COSMOS 2584 [GLONASS-K2]
1 63130U 25042A   26200.04979476 -.00000041  00000+0  00000+0 0  9996
2 63130  65.1027  71.7190 0005554 213.0172 147.0181  2.13103871 10724
NAVSTAR 84 (USA 545)    
1 64202U 25116A   26200.28242095 -.00000090  00000+0  00000+0 0  9999
2 64202  55.2566  29.8392 0008489 339.4064 228.0722  2.00573641  8511
COSMOS 2596 [GLONASS-K1]
1 65590U 25206B   26200.43096508 -.00000080  00000+0  00000+0 0  9992
2 65590  64.6134 313.8624 0011218 307.1523 101.2891  2.13100906  6608
GSAT0233 (GALILEO 33)   
1 67160U 25302A   26199.31262406 -.00000032  00000+0  00000+0 0  9997
2 67160  54.3525 101.2437 0001038 152.4729  26.5070  1.70473961  3658
GSAT0234 (GALILEO 34)   
1 67162U 25302C   26197.84918500 -.00000028  00000+0  00000+0 0  9993
2 67162  54.3544 101.2845 0002216 322.1435 218.7937  1.70473930  3689
NAVSTAR 85 (USA 581)    
1 67588U 26017A   26200.10529349 -.00000044  00000+0  00000+0 0  9990
2 67588  55.1087  87.4739 0021520 260.4546  99.3560  2.00570466432255
NAVSTAR 86 (USA 585)    
1 68791U 26087A   26200.32905851  .00000058  00000+0  00000+0 0  9998
2 68791  54.9613 206.5163 0020516 106.0701 261.0566  2.00573051  1485
